{"type": "FeatureCollection", "features": [{"type": "Feature", "geometry": {"type": "LineString", "coordinates": [[-49971.130688, 245496.30114], [-49999.063795, 245502.384199], [-50019.391907, 245503.859812], [-50030.522276, 245502.93827], [-50045.849965, 245495.381603], [-50070.598168, 245470.340993], [-50091.074497, 245438.939038], [-50114.01418, 245376.008582], [-50125.438756, 245345.098448], [-50136.595634, 245316.852298], [-50148.724856, 245256.622818], [-50168.421694, 245182.784165], [-50176.875495, 245149.409504], [-50182.005756, 245128.229919], [-50188.235578, 245104.17008], [-50207.171434, 245079.533302], [-50224.137786, 245063.435622], [-50241.652429, 245052.007083], [-50262.391414, 245042.489639], [-50279.602263, 245038.834441], [-50298.753756, 245042.524069], [-50315.952739, 245052.309198], [-50344.902785, 245079.172177], [-50365.483826, 245103.754577], [-50405.867708, 245157.246065], [-50414.593046, 245179.523215], [-50414.921872, 245215.181291], [-50421.23531, 245226.333676], [-50436.658952, 245240.549631], [-50476.495046, 245265.713006], [-50557.288096, 245345.150609], [-50600.060699, 245400.881757], [-50657.990323, 245449.723067], [-50681.431851, 245468.661829], [-50701.027098, 245479.797892], [-50731.939366, 245487.126883], [-50753.798777, 245483.394867], [-50768.998477, 245470.618201], [-50776.179443, 245453.119172], [-50779.390167, 245433.592461], [-50777.375161, 245413.473121], [-50772.751364, 245375.007449], [-50770.831388, 245329.896416], [-50778.473569, 245294.295091], [-50789.829118, 245273.493513], [-50807.352894, 245260.84457], [-50828.38291, 245257.106858], [-50843.478599, 245258.991797], [-50854.078895, 245262.621918], [-50863.000686, 245268.794848], [-50899.761796, 245305.823931], [-50946.209137, 245358.14005], [-50987.198164, 245395.8663], [-51018.913093, 245418.642021], [-51051.723435, 245427.541074], [-51074.699185, 245430.26052], [-51102.818258, 245421.909198], [-51121.826883, 245410.6046], [-51141.064672, 245402.07863], [-51195.11863, 245389.026471], [-51228.50284, 245387.378115], [-51239.435602, 245390.900129], [-51246.031784, 245397.167901], [-51249.882189, 245404.304547], [-51251.522106, 245453.301455], [-51248.232902, 245552.803114], [-51253.141196, 245609.043576], [-51255.418105, 245638.717619], [-51261.70965, 245675.751659], [-51268.036416, 245696.346505], [-51320.132549, 245793.470036], [-51334.836063, 245826.565974], [-51344.719482, 245860.404745], [-51354.867835, 245892.023895], [-51371.985635, 245912.585571], [-51385.273397, 245923.233768], [-51407.702112, 245932.503942], [-51427.023082, 245935.309258], [-51485.316804, 245932.398008], [-51530.720414, 245921.28532], [-51560.946223, 245908.396884], [-51626.514752, 245886.767341], [-51650.002911, 245875.829848], [-51710.457927, 245838.279908], [-51760.412647, 245817.871193], [-51776.633644, 245813.212734], [-51790.681147, 245810.648985], [-51839.115259, 245805.336309], [-51878.466116, 245804.845223], [-51891.072625, 245806.381047], [-51940.902578, 245825.960611], [-51965.814618, 245836.139275], [-52003.296515, 245852.852278], [-52011.642838, 245858.022781], [-52036.374301, 245881.529693], [-52045.506804, 245892.704172], [-52064.700412, 245924.279399], [-52074.230166, 245949.230449], [-52088.873984, 246001.321857], [-52102.726261, 246025.415939], [-52148.705969, 246071.73856], [-52185.000563, 246114.324966], [-52222.258994, 246161.250664], [-52255.047964, 246195.036606], [-52280.618875, 246216.995481], [-52324.286232, 246250.084061], [-52336.771324, 246256.729375], [-52347.791753, 246259.365147], [-52406.080521, 246268.124598], [-52414.345517, 246272.961758], [-52421.185583, 246279.676762], [-52427.417648, 246290.052866], [-52431.562405, 246302.079778], [-52434.209862, 246314.539981], [-52433.666486, 246331.975197], [-52432.615717, 246361.958472], [-52434.779863, 246372.415718], [-52442.488237, 246396.465279], [-52456.330349, 246421.670799], [-52473.058517, 246449.452402], [-52486.205319, 246478.873822], [-52494.863221, 246497.931942], [-52504.683353, 246528.217506], [-52511.141425, 246552.924404], [-52516.124326, 246575.065641], [-52519.235927, 246592.0835], [-52520.748446, 246612.088673], [-52522.156108, 246646.311042], [-52521.330216, 246679.517242], [-52520.057686, 246694.503373], [-52519.148271, 246705.271223], [-52519.196584, 246732.485665], [-52521.666776, 246768.937436], [-52526.35518, 246785.966934], [-52532.720671, 246800.676171]]}, "properties": {"Geometry type": "Alignment", "CL": 3}}, {"type": "Feature", "geometry": {"type": "LineString", "coordinates": [[-52554.586745, 246829.384527], [-52636.8638, 246882.198813], [-52715.151011, 246935.651007], [-52730.430747, 246956.980028], [-52736.973075, 246981.354556], [-52726.232285, 247008.378056], [-52709.023914, 247034.576151], [-52644.872802, 247123.630475], [-52638.107864, 247140.5754], [-52633.74081, 247181.197671], [-52636.359635, 247197.434419], [-52641.958712, 247214.692902], [-52659.656287, 247245.70345], [-52692.051123, 247264.493127], [-52732.828653, 247272.015068], [-52780.149273, 247270.144104], [-52827.315243, 247277.9361], [-52844.504559, 247287.838519], [-52862.683634, 247309.744762], [-52878.946102, 247343.855412], [-52904.112579, 247385.918801], [-52951.60868, 247438.478579], [-52968.939448, 247451.603628], [-52983.235981, 247459.818703], [-53003.593875, 247467.634613], [-53028.458688, 247472.040724], [-53089.607185, 247474.27365], [-53143.53832, 247487.227814], [-53151.403871, 247489.730246], [-53183.140699, 247496.298689], [-53211.086626, 247499.284439], [-53232.91972, 247498.447936], [-53246.470716, 247495.327993], [-53267.563699, 247482.489611], [-53283.788757, 247465.8382], [-53287.684323, 247455.426], [-53288.174076, 247445.432624], [-53288.003251, 247434.989992], [-53284.917039, 247425.969559], [-53275.932845, 247417.682543], [-53266.072217, 247415.609362], [-53237.706887, 247413.175656], [-53223.116746, 247410.956097], [-53213.363986, 247405.551449], [-53207.272656, 247398.841236], [-53204.291722, 247386.822516], [-53205.111654, 247377.053762], [-53219.541762, 247356.2789], [-53233.71136, 247337.057215], [-53237.519777, 247327.199728], [-53237.51568, 247316.647269], [-53233.621876, 247304.621713], [-53227.547912, 247295.578973], [-53217.170924, 247284.837905], [-53181.159984, 247261.464601], [-53149.92742, 247242.792432], [-53136.357547, 247226.140512], [-53137.88691, 247210.26775], [-53153.869925, 247192.725613], [-53189.282021, 247174.106752], [-53217.204364, 247147.101224], [-53244.286323, 247099.317904], [-53251.35073, 247075.822159], [-53257.045771, 247057.870088], [-53275.150035, 247023.126968], [-53317.842391, 246963.464283], [-53360.770288, 246905.69194], [-53364.372326, 246901.275805], [-53385.357892, 246880.883631], [-53437.966409, 246827.294211], [-53520.121325, 246774.03823], [-53540.678864, 246766.528356], [-53603.44848, 246752.671442], [-53630.476513, 246745.654842], [-53650.067587, 246734.250266], [-53661.612273, 246722.22972], [-53679.573557, 246695.817387], [-53694.475811, 246667.82694], [-53715.651623, 246644.438042], [-53726.980295, 246639.080662], [-53745.096322, 246636.218237], [-53762.42095, 246639.237028], [-53798.656275, 246655.061603], [-53811.607925, 246665.600803], [-53820.90348, 246676.667789], [-53835.029481, 246696.54648], [-53861.319412, 246743.287043], [-53873.312481, 246759.817338], [-53917.038755, 246794.693588], [-53957.085683, 246811.214319], [-53975.157602, 246814.128221], [-54011.372157, 246810.626122], [-54024.215358, 246813.500495], [-54035.7104, 246819.030542], [-54081.248424, 246844.702069], [-54119.540841, 246862.654421], [-54147.959029, 246869.312984], [-54165.293917, 246870.888828], [-54182.645699, 246870.243276], [-54204.50371, 246866.41079], [-54232.449115, 246858.848061], [-54319.984891, 246840.854037], [-54337.381682, 246834.322048], [-54372.644612, 246814.152763], [-54386.341506, 246803.03843], [-54397.562151, 246790.127955], [-54405.954194, 246778.084514], [-54424.175797, 246739.679532], [-54453.78302, 246677.701941], [-54466.486283, 246655.472322], [-54469.109313, 246648.938756], [-54491.078363, 246609.007506], [-54499.433671, 246590.965658], [-54503.931158, 246578.11498], [-54505.40618, 246558.909706], [-54506.703311, 246541.258168], [-54508.384839, 246527.608395], [-54516.892995, 246500.45931], [-54525.796322, 246486.753744], [-54554.75052, 246456.09567], [-54592.146258, 246428.723682], [-54609.580927, 246417.41626], [-54643.431421, 246397.792843], [-54672.324549, 246386.018097], [-54713.660158, 246375.338741], [-54738.185399, 246370.306492], [-54786.35045, 246367.455533], [-54824.578634, 246372.303897], [-54864.95109, 246378.946239], [-54909.101303, 246380.06401], [-54934.286397, 246375.592913], [-54968.149863, 246365.190635], [-54985.856594, 246350.998182], [-54999.240487, 246337.661018], [-55040.755424, 246303.880605]]}, "properties": {"Geometry type": "Alignment", "CL": 3}}, {"type": "Feature", "geometry": {"type": "LineString", "coordinates": [[-55076.756265, 246285.497701], [-55173.814859, 246207.383112], [-55183.031174, 246196.346654], [-55198.933838, 246168.700243], [-55202.859569, 246154.845852], [-55211.390597, 246125.14293], [-55216.140893, 246101.297872], [-55216.467202, 246059.20165], [-55213.450791, 246041.40571], [-55208.19152, 246023.814546], [-55202.770515, 246005.666741], [-55198.300406, 245982.638856], [-55197.772349, 245965.084365], [-55200.331362, 245956.217916], [-55215.634269, 245920.347088], [-55228.145073, 245902.005044], [-55243.269934, 245889.126137], [-55380.124558, 245807.657406], [-55399.964033, 245797.037048], [-55430.468264, 245781.390106], [-55454.761758, 245763.806609], [-55471.576885, 245747.164666], [-55481.319108, 245732.689245], [-55488.643752, 245719.52795], [-55493.566374, 245705.681479], [-55497.594091, 245689.495392], [-55499.824189, 245669.629712], [-55499.457715, 245642.079388], [-55491.9058, 245599.144263], [-55476.722054, 245555.483248], [-55470.763511, 245531.777138], [-55470.161692, 245523.774802], [-55473.087825, 245510.468168], [-55479.678549, 245495.634973], [-55491.794698, 245485.510113], [-55510.108147, 245479.099144], [-55544.312986, 245478.810333], [-55567.349468, 245473.547118], [-55585.212613, 245461.023512], [-55593.817555, 245443.429171], [-55596.064255, 245432.116696], [-55595.462758, 245413.450817], [-55591.203346, 245406.086402], [-55569.337912, 245378.257291], [-55549.468934, 245349.888424], [-55535.953686, 245326.45659], [-55521.074731, 245296.904842], [-55512.108517, 245286.282528], [-55479.91933, 245251.486421], [-55469.593644, 245234.188873], [-55463.138427, 245210.256763], [-55461.875875, 245180.477921], [-55458.863037, 245130.247033], [-55458.242013, 245071.370651], [-55460.562947, 245050.505978], [-55466.502006, 245023.44908], [-55476.048002, 244991.643898], [-55487.175715, 244969.959177], [-55501.543758, 244947.966475], [-55549.793893, 244871.587283], [-55558.985745, 244853.33101], [-55583.966634, 244779.991934], [-55598.97541, 244750.451092], [-55616.322534, 244729.814799], [-55643.305274, 244708.587306], [-55659.791802, 244702.495663], [-55688.447593, 244700.942279], [-55703.277792, 244704.945927], [-55721.715691, 244714.75389], [-55742.972351, 244735.691791], [-55772.413471, 244771.689394], [-55784.319967, 244788.55543], [-55795.222354, 244806.413332], [-55821.987543, 244855.38638], [-55845.856314, 244903.114977], [-55866.285348, 244923.602468], [-55891.288669, 244932.462656], [-55912.537626, 244933.073666], [-55944.039571, 244928.433459], [-55987.717089, 244916.891096], [-56026.077253, 244905.862583], [-56055.155272, 244892.761839], [-56082.370314, 244873.759388], [-56148.434172, 244813.408584], [-56185.751637, 244755.719718], [-56203.058343, 244698.317512], [-56211.850971, 244636.182888], [-56218.853847, 244579.921322], [-56230.173512, 244544.798739], [-56247.76503, 244525.054505], [-56265.191194, 244515.750387], [-56299.292283, 244518.685576], [-56359.154399, 244529.266863], [-56388.913637, 244535.278347], [-56419.3998, 244543.850518], [-56458.321874, 244567.040939], [-56476.24368, 244589.509733], [-56479.813275, 244610.531874], [-56472.858837, 244639.468274], [-56443.076231, 244688.884457], [-56400.895969, 244741.757146], [-56371.814001, 244797.177408], [-56361.980432, 244854.305101], [-56366.867078, 244876.78163], [-56396.38125, 244934.553871], [-56434.72044, 244968.180992], [-56449.52417, 244975.407282], [-56474.724342, 244980.272262], [-56539.20959, 244962.233488], [-56700.29485, 244907.307601], [-56972.340067, 244858.047952], [-57113.325701, 244856.621704], [-57154.670806, 244867.061365], [-57204.269461, 244883.565776], [-57361.822538, 244958.921898], [-57392.76613, 244982.497626], [-57427.195987, 245016.431928], [-57491.963727, 245056.276141], [-57588.173498, 245088.599474], [-57671.864766, 245108.381941], [-57836.858426, 245155.705994], [-57967.999941, 245200.314685], [-58006.663541, 245223.622716], [-58022.756141, 245245.636332], [-58048.262626, 245304.382794], [-58097.331236, 245405.642615], [-58185.893548, 245590.756828], [-58234.877078, 245671.467354], [-58256.778905, 245703.637249], [-58275.406537, 245730.115389], [-58309.719469, 245777.382697], [-58371.402143, 245857.976032]]}, "properties": {"Geometry type": "Alignment", "CL": 3}}, {"type": "Feature", "geometry": {"type": "LineString", "coordinates": [[-55261.708907, 246604.614964], [-55092.631321, 246411.583507], [-55085.973605, 246403.090045], [-55086.002603, 246377.875445], [-55085.967285, 246328.778469], [-55068.182477, 246310.090837], [-55068.18076, 246310.312981]]}, "properties": {"Geometry type": "Alignment", "CL": 3}}, {"type": "Feature", "geometry": {"type": "LineString", "coordinates": [[-52978.067149, 247886.7648], [-53004.964771, 247840.867546], [-52986.219548, 247806.071604], [-52958.573374, 247774.097535], [-52955.153405, 247742.970201], [-52991.708225, 247693.034842], [-53031.071502, 247667.224554], [-53059.695791, 247634.780826], [-53117.820708, 247574.898765], [-53170.34168, 247520.97354]]}, "properties": {"Geometry type": "Alignment", "CL": 3}}, {"type": "Feature", "geometry": {"type": "LineString", "coordinates": [[-52191.687912, 247183.942151], [-52238.241415, 247128.30025], [-52265.583238, 247112.061348], [-52301.701698, 247109.993901], [-52385.159141, 247069.841762], [-52412.836374, 247064.491523], [-52432.322776, 247055.637661], [-52443.848506, 247045.836597], [-52451.109924, 246995.238539], [-52456.291128, 246979.170402], [-52463.865722, 246953.678278], [-52480.667405, 246926.254751], [-52507.653737, 246902.127609], [-52511.357891, 246895.045934], [-52518.231421, 246852.109462], [-52531.887356, 246834.882025], [-52545.4696, 246827.651083]]}, "properties": {"Geometry type": "Alignment", "CL": 3}}], "name": "Coura_alignments", "Context code": "01", "Context name": "Coura", "crs": {"type": "name", "properties": {"name": "urn:ogc:def:crs:EPSG::3763"}}}