{"type": "FeatureCollection", "features": [{"type": "Feature", "geometry": {"type": "LineString", "coordinates": [[-49892.437846, 245495.638554], [-49896.968514, 245453.238859]]}, "properties": {"Geometry type": "Boundary Line", "Type": "Output", "Data type": "V"}}, {"type": "Feature", "geometry": {"type": "LineString", "coordinates": [[-51666.07143, 247837.023313], [-51735.687938, 247884.070512]]}, "properties": {"Geometry type": "Boundary Line", "Type": "Output", "Data type": "V"}}, {"type": "Feature", "geometry": {"type": "LineString", "coordinates": [[-52702.199304, 248270.380735], [-52720.267966, 248273.291489], [-52791.795668, 248284.929424], [-52803.56453, 248286.905046]]}, "properties": {"Geometry type": "Boundary Line", "Type": "Input", "Data type": "V"}}, {"type": "Feature", "geometry": {"type": "LineString", "coordinates": [[-55266.571365, 246983.430858], [-55385.677461, 246876.276637]]}, "properties": {"Geometry type": "Boundary Line", "Type": "Input", "Data type": "V"}}, {"type": "Feature", "geometry": {"type": "LineString", "coordinates": [[-58653.334566, 244584.545879], [-58613.062689, 245271.350749], [-58555.143043, 245833.602446], [-58175.6254, 246055.206509], [-57663.188896, 246385.277263], [-57283.064223, 246679.235652], [-57237.819993, 246711.195927]]}, "properties": {"Geometry type": "Boundary Line", "Type": "Output", "Data type": "V"}}], "name": "Coura_boundaries", "Context code": "01", "Context name": "Coura", "crs": {"type": "name", "properties": {"name": "urn:ogc:def:crs:EPSG::3763"}}}