{"type": "FeatureCollection", "features": [{"type": "Feature", "geometry": {"type": "Point", "coordinates": [-49892.437846, 245495.638554]}, "properties": {"Geometry type": "Boundary Point", "Boundary": 509, "Series": "sensor_1.bnd", "Type": "V"}}, {"type": "Feature", "geometry": {"type": "Point", "coordinates": [-49896.968514, 245453.238859]}, "properties": {"Geometry type": "Boundary Point", "Boundary": 509, "Series": "sensor_1.bnd", "Type": "V"}}, {"type": "Feature", "geometry": {"type": "Point", "coordinates": [-51666.07143, 247837.023313]}, "properties": {"Geometry type": "Boundary Point", "Boundary": 510, "Series": "sensor_2.bnd", "Type": "V"}}, {"type": "Feature", "geometry": {"type": "Point", "coordinates": [-51735.687938, 247884.070512]}, "properties": {"Geometry type": "Boundary Point", "Boundary": 510, "Series": "sensor_2.bnd", "Type": "V"}}, {"type": "Feature", "geometry": {"type": "Point", "coordinates": [-52702.199304, 248270.380735]}, "properties": {"Geometry type": "Boundary Point", "Boundary": 511, "Series": "sensor_3.bnd", "Type": "V"}}, {"type": "Feature", "geometry": {"type": "Point", "coordinates": [-52720.267966, 248273.291489]}, "properties": {"Geometry type": "Boundary Point", "Boundary": 511, "Series": "sensor_3.bnd", "Type": "V"}}, {"type": "Feature", "geometry": {"type": "Point", "coordinates": [-52791.795668, 248284.929424]}, "properties": {"Geometry type": "Boundary Point", "Boundary": 511, "Series": "sensor_3.bnd", "Type": "V"}}, {"type": "Feature", "geometry": {"type": "Point", "coordinates": [-52803.56453, 248286.905046]}, "properties": {"Geometry type": "Boundary Point", "Boundary": 511, "Series": "sensor_3.bnd", "Type": "V"}}, {"type": "Feature", "geometry": {"type": "Point", "coordinates": [-55266.571365, 246983.430858]}, "properties": {"Geometry type": "Boundary Point", "Boundary": 512, "Series": "sensor_4.bnd", "Type": "V"}}, {"type": "Feature", "geometry": {"type": "Point", "coordinates": [-55385.677461, 246876.276637]}, "properties": {"Geometry type": "Boundary Point", "Boundary": 512, "Series": "sensor_4.bnd", "Type": "V"}}, {"type": "Feature", "geometry": {"type": "Point", "coordinates": [-58653.334566, 244584.545879]}, "properties": {"Geometry type": "Boundary Point", "Boundary": 513, "Series": "sensor_5.bnd", "Type": "V"}}, {"type": "Feature", "geometry": {"type": "Point", "coordinates": [-58613.062689, 245271.350749]}, "properties": {"Geometry type": "Boundary Point", "Boundary": 513, "Series": "sensor_5.bnd", "Type": "V"}}, {"type": "Feature", "geometry": {"type": "Point", "coordinates": [-58555.143043, 245833.602446]}, "properties": {"Geometry type": "Boundary Point", "Boundary": 513, "Series": "sensor_5.bnd", "Type": "V"}}, {"type": "Feature", "geometry": {"type": "Point", "coordinates": [-58175.6254, 246055.206509]}, "properties": {"Geometry type": "Boundary Point", "Boundary": 513, "Series": "sensor_5.bnd", "Type": "V"}}, {"type": "Feature", "geometry": {"type": "Point", "coordinates": [-57663.188896, 246385.277263]}, "properties": {"Geometry type": "Boundary Point", "Boundary": 513, "Series": "sensor_5.bnd", "Type": "V"}}, {"type": "Feature", "geometry": {"type": "Point", "coordinates": [-57283.064223, 246679.235652]}, "properties": {"Geometry type": "Boundary Point", "Boundary": 513, "Series": "sensor_5.bnd", "Type": "V"}}, {"type": "Feature", "geometry": {"type": "Point", "coordinates": [-57237.819993, 246711.195927]}, "properties": {"Geometry type": "Boundary Point", "Boundary": 513, "Series": "sensor_5.bnd", "Type": "V"}}], "name": "Coura_boundary_points", "Context code": "01", "Context name": "Coura", "crs": {"type": "name", "properties": {"name": "urn:ogc:def:crs:EPSG::3763"}}}