{"type": "FeatureCollection", "features": [{"type": "Feature", "geometry": {"type": "Polygon", "coordinates": [[[-58613.062689, 245271.350749], [-58555.143043, 245833.602446], [-58175.6254, 246055.206509], [-57663.188896, 246385.277263], [-57283.064223, 246679.235652], [-57237.819993, 246711.195927], [-56953.724668, 246708.585118], [-56861.344937, 245990.943096], [-56678.537097, 245930.725505], [-56186.486961, 245988.920575], [-55747.202833, 246327.59155], [-55540.90384, 246618.672174], [-55417.432311, 246816.652258], [-55385.677461, 246876.276637], [-55266.571365, 246983.430858], [-55027.599223, 247190.074844], [-54505.880705, 247602.940032], [-54156.60947, 247761.671831], [-53664.510668, 247846.363951], [-53175.586704, 248018.754382], [-52982.425036, 248315.892572], [-52803.56453, 248286.905046], [-52791.795668, 248284.929424], [-52720.267966, 248273.291489], [-52702.199304, 248270.380735], [-52176.715728, 248184.978303], [-51735.687938, 247884.070512], [-51666.07143, 247837.023313], [-51555.005368, 247760.796298], [-51364.480633, 247390.41887], [-52174.127565, 246930.000524], [-51687.284648, 246537.900589], [-51429.310806, 246342.758125], [-51131.633306, 246160.891628], [-50747.969132, 245754.048622], [-50083.230763, 245704.469212], [-49881.810741, 245602.531325], [-49892.437846, 245495.638554], [-49896.968514, 245453.238859], [-49900.887813, 245415.166892], [-49908.557053, 245078.768416], [-50175.850475, 244681.879217], [-50685.179411, 244708.365392], [-50797.628651, 244959.644994], [-51392.927425, 245138.304959], [-51799.357628, 245359.404113], [-52239.584048, 245621.095848], [-52378.468188, 245733.637572], [-52966.148372, 245851.504197], [-53132.529006, 246348.706248], [-53258.219657, 246434.730737], [-53827.06788, 246322.263828], [-54164.461022, 246216.409146], [-54290.086569, 246004.761747], [-54288.330549, 245243.862892], [-53970.890714, 244100.792174], [-55436.365336, 243336.713884], [-55279.041599, 241971.122339], [-55931.667643, 242092.064546], [-56585.728583, 242301.718659], [-57081.033363, 242574.69755], [-57163.608098, 243317.696483], [-57538.015157, 243763.579005], [-58155.163989, 244259.778165], [-58475.362708, 244316.715649], [-58653.334566, 244584.545879], [-58613.062689, 245271.350749]]]}, "properties": {"Geometry type": "Domain", "CL": 20}}], "name": "Coura", "code": "01", "crs": {"type": "name", "properties": {"name": "urn:ogc:def:crs:EPSG::3763"}}}