{"type": "FeatureCollection", "features": [{"type": "Feature", "geometry": {"type": "Polygon", "coordinates": [[[-52337.002205, 247185.341943], [-52256.145674, 247244.508039], [-52192.427203, 247252.926949], [-52132.611674, 247215.721986], [-52112.818782, 247141.821393], [-52132.590005, 247093.980471], [-52200.142374, 247026.939988], [-52347.296945, 246970.37076], [-52430.967698, 246845.135026], [-52450.78476, 246802.738115], [-52419.136063, 246704.756558], [-52427.747994, 246594.741784], [-52415.085524, 246510.78481], [-52358.165472, 246417.727249], [-52016.795296, 246073.217791], [-51967.31637, 245948.894009], [-51877.136877, 245907.58231], [-51812.112022, 245911.441098], [-51558.716739, 246021.457667], [-51445.851472, 246029.305696], [-51370.650066, 246017.210923], [-51331.435961, 245987.38163], [-51241.034543, 245861.102196], [-51164.80385, 245645.286302], [-51162.793329, 245485.986938], [-51074.629728, 245521.010189], [-51009.688891, 245524.321563], [-50881.696439, 245417.549687], [-50879.689553, 245500.95438], [-50828.874262, 245572.236504], [-50749.327434, 245598.327965], [-50679.019521, 245586.053297], [-50587.034891, 245528.416954], [-50341.529263, 245274.644006], [-50313.443582, 245196.025203], [-50272.317273, 245212.396478], [-50190.413703, 245490.289301], [-50076.109347, 245595.674671], [-49943.876789, 245594.635378], [-49936.153512, 245417.413361], [-49997.346305, 245404.068961], [-50023.104821, 245377.035889], [-50087.87124, 245162.445764], [-50094.079735, 245070.517646], [-50141.418621, 245008.980712], [-50258.576839, 244935.939863], [-50343.992235, 244949.538823], [-50486.72907, 245086.729202], [-50513.085762, 245163.114897], [-50662.901268, 245319.464434], [-50697.163758, 245229.40239], [-50757.688719, 245170.406999], [-50806.941525, 245155.540449], [-50913.113201, 245168.405708], [-51059.36054, 245311.742184], [-51141.401318, 245285.783104], [-51237.90124, 245281.033613], [-51285.536855, 245294.816688], [-51357.605267, 245374.089645], [-51362.615611, 245611.831379], [-51423.591501, 245778.220942], [-51462.155107, 245829.261818], [-51587.969844, 245798.959027], [-51782.841928, 245712.843759], [-51913.945262, 245709.132655], [-52078.374426, 245779.75627], [-52135.712457, 245839.602198], [-52186.623135, 245960.827477], [-52513.819396, 246291.022583], [-52594.865748, 246421.470583], [-52628.002139, 246576.335774], [-52619.14221, 246685.793132], [-52643.928986, 246746.06947], [-52806.098195, 246882.229824], [-52831.993139, 246927.075246], [-52840.394387, 247002.892793], [-52793.983477, 247094.521178], [-52855.80576, 247196.505137], [-52903.063503, 247225.514224], [-53030.600755, 247373.863586], [-53086.487616, 247313.853516], [-53039.689226, 247245.636027], [-53056.106166, 247158.67308], [-53159.004352, 247038.587486], [-53281.464215, 246844.78272], [-53377.05817, 246747.971962], [-53521.271793, 246654.082461], [-53625.450681, 246564.337411], [-53711.681292, 246532.552362], [-53792.636626, 246539.939106], [-53904.685847, 246595.436759], [-53956.035118, 246697.906511], [-54171.33723, 246774.740942], [-54245.461609, 246763.197612], [-54315.486461, 246723.298797], [-54403.215121, 246549.908586], [-54435.757704, 246429.748291], [-54571.482832, 246308.933919], [-54614.056539, 246288.377492], [-54731.647779, 246270.507838], [-54908.482314, 246277.311661], [-55099.585564, 246134.94075], [-55145.77862, 246054.655235], [-55157.680732, 245900.459396], [-55178.45294, 245855.078095], [-55351.061131, 245712.681588], [-55325.505512, 245604.181585], [-55331.001787, 245484.370636], [-55317.518159, 245381.962714], [-55265.950962, 245191.063123], [-55258.551476, 245021.166953], [-55276.571388, 244967.100495], [-55365.359253, 244887.480159], [-55448.52553, 244826.367243], [-55563.666755, 244700.190444], [-55646.385388, 244643.741589], [-55756.268755, 244659.818182], [-55858.0898, 244729.928476], [-55926.328658, 244826.102233], [-55987.217826, 244811.362603], [-56111.867394, 244680.937136], [-56111.888106, 244572.857931], [-56128.787301, 244525.005103], [-56213.879824, 244431.592296], [-56260.328055, 244406.077516], [-56456.598402, 244438.731548], [-56576.507578, 244562.202106], [-56580.265757, 244643.097172], [-56462.871752, 244831.110809], [-56470.034483, 244870.156164], [-56504.022604, 244876.645986], [-56894.040295, 244755.118866], [-57213.008511, 244756.783914], [-57260.557336, 244780.49237], [-57544.449759, 244889.748152], [-57867.206114, 244955.899016], [-58131.755415, 245032.586352], [-58100.076266, 245221.717902], [-58127.901047, 245362.57107], [-58358.294356, 245725.23993], [-58451.909541, 245839.530501], [-58262.393915, 245961.053912], [-58109.067635, 245839.502688], [-57905.82283, 245506.165317], [-57921.676851, 245383.88498], [-57924.919942, 245352.587032], [-57913.485903, 245339.608907], [-57870.131545, 245341.922543], [-57682.257549, 245414.155575], [-57502.87121, 245340.393095], [-57359.243856, 245279.252749], [-57256.011578, 245160.234487], [-57127.873712, 244999.252446], [-56924.74844, 244953.972906], [-56478.469768, 245083.827259], [-56379.199395, 245049.495366], [-56319.581356, 245008.591291], [-56293.135158, 244919.741597], [-56306.404338, 244805.990885], [-56261.3546, 244780.864555], [-56201.865651, 244828.49215], [-56086.35044, 244990.423174], [-55923.664672, 245028.02202], [-55871.282291, 245027.500027], [-55826.365454, 245006.598464], [-55703.3327, 244942.209841], [-55608.780591, 245026.002021], [-55605.651722, 245224.808006], [-55618.813394, 245325.436746], [-55677.59749, 245420.090434], [-55653.67348, 245751.472934], [-55573.53492, 245840.598801], [-55451.480457, 245886.744988], [-55352.081696, 245965.948485], [-55342.779297, 246094.838377], [-55301.187141, 246202.372615], [-55185.555186, 246320.551998], [-55185.946779, 246366.430469], [-55356.415943, 246572.471167], [-55356.414078, 246636.78568], [-55317.255703, 246687.799755], [-55261.762363, 246704.69721], [-55200.833523, 246684.008393], [-55001.80533, 246456.979131], [-54939.718069, 246478.493487], [-54773.449105, 246469.21524], [-54679.489041, 246479.934358], [-54604.366948, 246545.338611], [-54588.813423, 246625.306925], [-54465.771077, 246857.518495], [-54374.171186, 246929.463812], [-54168.061755, 246976.212174], [-53865.291882, 246876.499932], [-53788.834127, 246823.604177], [-53753.194031, 246740.026405], [-53724.152114, 246738.918639], [-53440.23766, 246967.047595], [-53314.176065, 247164.932632], [-53292.166268, 247211.420715], [-53331.565168, 247258.923925], [-53339.598506, 247349.846079], [-53379.629404, 247401.464212], [-53381.283564, 247490.78353], [-53349.70251, 247540.976358], [-53240.851881, 247591.92404], [-53145.09245, 247690.401474], [-53126.574793, 247736.36074], [-53135.142602, 247800.405748], [-53102.853935, 247890.249301], [-53071.345293, 247931.224377], [-53029.960883, 247950.021446], [-52966.289477, 247941.660889], [-52920.819476, 247896.113902], [-52910.525436, 247851.939341], [-52919.666656, 247716.269731], [-52890.966819, 247569.100058], [-52636.977505, 247338.397005], [-52562.898736, 247232.547817], [-52569.24673, 247103.410972], [-52524.787596, 247054.763985], [-52478.215485, 247101.295521], [-52337.002205, 247185.341943]]]}, "properties": {"Geometry type": "Refinement", "CL": 15}}], "name": "Coura_refinements", "Context code": "01", "Context name": "Coura", "crs": {"type": "name", "properties": {"name": "urn:ogc:def:crs:EPSG::3763"}}}